{"type": "FeatureCollection", "features": [ {"type": "Feature", "properties": {"norad_id": 30516, "name": "FENGYUN 1C DEB", "group": "fengyun-1c-debris", "lat": 44.96684333618274, "lon": -69.66943854256893, "alt_km": 753.9569341938495, "timestamp": "2025-12-22T23:36:20.990332+00:00", "meta": {"OBJECT_NAME": "FENGYUN 1C DEB", "OBJECT_ID": "1999-025AJE", "EPOCH": "2025-12-21T05:28:24.155040", "MEAN_MOTION": 14.41442552, "ECCENTRICITY": 0.0009954, "INCLINATION": 98.8575, "RA_OF_ASC_NODE": 99.5508, "ARG_OF_PERICENTER": 265.4457, "MEAN_ANOMALY": 124.3374, "EPHEMERIS_TYPE": 0, "CLASSIFICATION_TYPE": "U", "NORAD_CAT_ID": 30516, "ELEMENT_SET_NO": 999, "REV_AT_EPOCH": 97837, "BSTAR": 0.0015693, "MEAN_MOTION_DOT": 5.048e-05, "MEAN_MOTION_DDOT": 0}, "tle": {"line1": "1 30516U 99025AJE 25355.22805735  .00005048  00000+0  15693-2 0  9994", "line2": "2 30516  98.8575  99.5508 0009954 265.4457 124.3374 14.41442552978375"}}, "geometry": {"type": "Point", "coordinates": [-69.66943854256893, 44.96684333618274]}}, {"type": "Feature", "properties": {"norad_id": 30520, "name": "FENGYUN 1C DEB", "group": "fengyun-1c-debris", "lat": 59.42234795476631, "lon": 156.21813241765793, "alt_km": 468.8552493915049, "timestamp": "2025-12-22T23:36:20.990342+00:00", "meta": {"OBJECT_NAME": "FENGYUN 1C DEB", "OBJECT_ID": "1999-025AJJ", "EPOCH": "2025-12-20T11:04:56.854560", "MEAN_MOTION": 15.14342936, "ECCENTRICITY": 0.0070124, "INCLINATION": 98.7177, "RA_OF_ASC_NODE": 168.3838, "ARG_OF_PERICENTER": 74.2451, "MEAN_ANOMALY": 286.6496, "EPHEMERIS_TYPE": 0, "CLASSIFICATION_TYPE": "U", "NORAD_CAT_ID": 30520, "ELEMENT_SET_NO": 999, "REV_AT_EPOCH": 1158, "BSTAR": 0.00062179149, "MEAN_MOTION_DOT": 0.00012042, "MEAN_MOTION_DDOT": 0}, "tle": {"line1": "1 30520U 99025AJJ 25354.46176915  .00012042  00000+0  62179-3 0  9999", "line2": "2 30520  98.7177 168.3838 0070124  74.2451 286.6496 15.14342936 11589"}}, "geometry": {"type": "Point", "coordinates": [156.21813241765793, 59.42234795476631]}}, {"type": "Feature", "properties": {"norad_id": 30521, "name": "FENGYUN 1C DEB", "group": "fengyun-1c-debris", "lat": -33.53464987715822, "lon": 139.07065370871192, "alt_km": 742.1192463861235, "timestamp": "2025-12-22T23:36:20.990353+00:00", "meta": {"OBJECT_NAME": "FENGYUN 1C DEB", "OBJECT_ID": "1999-025AJK", "EPOCH": "2025-12-21T03:18:11.165472", "MEAN_MOTION": 14.58313042, "ECCENTRICITY": 0.01357892, "INCLINATION": 98.989, "RA_OF_ASC_NODE": 131.0537, "ARG_OF_PERICENTER": 218.0978, "MEAN_ANOMALY": 141.0559, "EPHEMERIS_TYPE": 0, "CLASSIFICATION_TYPE": "U", "NORAD_CAT_ID": 30521, "ELEMENT_SET_NO": 999, "REV_AT_EPOCH": 99704, "BSTAR": 0.00056294508, "MEAN_MOTION_DOT": 2.896e-05, "MEAN_MOTION_DDOT": 0}, "tle": {"line1": "1 30521U 99025AJK 25355.13762923  .00002896  00000+0  56295-3 0  9993", "line2": "2 30521  98.9890 131.0537 0135789 218.0978 141.0559 14.58313042997049"}}, "geometry": {"type": "Point", "coordinates": [139.07065370871192, -33.53464987715822]}}, {"type": "Feature", "properties": {"norad_id": 30523, "name": "FENGYUN 1C DEB", "group": "fengyun-1c-debris", "lat": -18.17915432286846, "lon": 152.21241314398026, "alt_km": 887.2787512005343, "timestamp": "2025-12-22T23:36:20.990364+00:00", "meta": {"OBJECT_NAME": "FENGYUN 1C DEB", "OBJECT_ID": "1999-025AJM", "EPOCH": "2025-12-22T09:56:25.399104", "MEAN_MOTION": 14.2794299, "ECCENTRICITY": 0.02441775, "INCLINATION": 98.4668, "RA_OF_ASC_NODE": 334.4635, "ARG_OF_PERICENTER": 80.2017, "MEAN_ANOMALY": 70.2722, "EPHEMERIS_TYPE": 0, "CLASSIFICATION_TYPE": "U", "NORAD_CAT_ID": 30523, "ELEMENT_SET_NO": 999, "REV_AT_EPOCH": 98238, "BSTAR": 0.00020740675, "MEAN_MOTION_DOT": 6.6e-06, "MEAN_MOTION_DDOT": 0}, "tle": {"line1": "1 30523U 99025AJM 25356.41418286  .00000660  00000+0  20741-3 0  9991", "line2": "2 30523  98.4668 334.4635 0244177  80.2017  70.2722 14.27942990982384"}}, "geometry": {"type": "Point", "coordinates": [152.21241314398026, -18.17915432286846]}}, {"type": "Feature", "properties": {"norad_id": 30524, "name": "FENGYUN 1C DEB", "group": "fengyun-1c-debris", "lat": -71.83492718607697, "lon": -160.87439250469893, "alt_km": 856.4085724444876, "timestamp": "2025-12-22T23:36:20.990375+00:00", "meta": {"OBJECT_NAME": "FENGYUN 1C DEB", "OBJECT_ID": "1999-025AJN", "EPOCH": "2025-12-16T11:00:51.821568", "MEAN_MOTION": 13.92254836, "ECCENTRICITY": 0.02078556, "INCLINATION": 99.3067, "RA_OF_ASC_NODE": 162.5862, "ARG_OF_PERICENTER": 240.3218, "MEAN_ANOMALY": 117.7105, "EPHEMERIS_TYPE": 0, "CLASSIFICATION_TYPE": "U", "NORAD_CAT_ID": 30524, "ELEMENT_SET_NO": 999, "REV_AT_EPOCH": 93937, "BSTAR": 0.0039327007, "MEAN_MOTION_DOT": 5.976e-05, "MEAN_MOTION_DDOT": 0}, "tle": {"line1": "1 30524U 99025AJN 25350.45893312  .00005976  00000+0  39327-2 0  9991", "line2": "2 30524  99.3067 162.5862 0207855 240.3218 117.7105 13.92254836939373"}}, "geometry": {"type": "Point", "coordinates": [-160.87439250469893, -71.83492718607697]}}, {"type": "Feature", "properties": {"norad_id": 30525, "name": "FENGYUN 1C DEB", "group": "fengyun-1c-debris", "lat": 5.661048518726401, "lon": -120.02177406924503, "alt_km": 1010.050647305542, "timestamp": "2025-12-22T23:36:20.990385+00:00", "meta": {"OBJECT_NAME": "FENGYUN 1C DEB", "OBJECT_ID": "1999-025AJP", "EPOCH": "2025-12-18T15:18:01.895616", "MEAN_MOTION": 13.58621536, "ECCENTRICITY": 0.02931758, "INCLINATION": 98.6028, "RA_OF_ASC_NODE": 237.0204, "ARG_OF_PERICENTER": 294.1589, "MEAN_ANOMALY": 62.9159, "EPHEMERIS_TYPE": 0, "CLASSIFICATION_TYPE": "U", "NORAD_CAT_ID": 30525, "ELEMENT_SET_NO": 999, "REV_AT_EPOCH": 93197, "BSTAR": 0.0010827558, "MEAN_MOTION_DOT": 1.008e-05, "MEAN_MOTION_DDOT": 0}, "tle": {"line1": "1 30525U 99025AJP 25352.63752194  .00001008  00000+0  10828-2 0  9993", "line2": "2 30525  98.6028 237.0204 0293175 294.1589  62.9159 13.58621536931974"}}, "geometry": {"type": "Point", "coordinates": [-120.02177406924503, 5.661048518726401]}}, {"type": "Feature", "properties": {"norad_id": 30526, "name": "FENGYUN 1C DEB", "group": "fengyun-1c-debris", "lat": 31.75275436521939, "lon": 72.85832061076448, "alt_km": 1273.04774242028, "timestamp": "2025-12-22T23:36:20.990396+00:00", "meta": {"OBJECT_NAME": "FENGYUN 1C DEB", "OBJECT_ID": "1999-025AJQ", "EPOCH": "2025-12-18T16:16:05.246400", "MEAN_MOTION": 13.4991885, "ECCENTRICITY": 0.03066867, "INCLINATION": 99.5472, "RA_OF_ASC_NODE": 74.7045, "ARG_OF_PERICENTER": 249.9099, "MEAN_ANOMALY": 106.879, "EPHEMERIS_TYPE": 0, "CLASSIFICATION_TYPE": "U", "NORAD_CAT_ID": 30526, "ELEMENT_SET_NO": 999, "REV_AT_EPOCH": 92738, "BSTAR": 0.0011342218, "MEAN_MOTION_DOT": 9.2e-06, "MEAN_MOTION_DDOT": 0}, "tle": {"line1": "1 30526U 99025AJQ 25352.67783850  .00000920  00000+0  11342-2 0  9995", "line2": "2 30526  99.5472  74.7045 0306686 249.9099 106.8790 13.49918850927380"}}, "geometry": {"type": "Point", "coordinates": [72.85832061076448, 31.75275436521939]}}, {"type": "Feature", "properties": {"norad_id": 30527, "name": "FENGYUN 1C DEB", "group": "fengyun-1c-debris", "lat": -30.342517827164627, "lon": 46.12035184947745, "alt_km": 1327.5274434374924, "timestamp": "2025-12-22T23:36:20.990406+00:00", "meta": {"OBJECT_NAME": "FENGYUN 1C DEB", "OBJECT_ID": "1999-025AJR", "EPOCH": "2025-12-21T08:45:27.017856", "MEAN_MOTION": 13.31051449, "ECCENTRICITY": 0.04136292, "INCLINATION": 100.0631, "RA_OF_ASC_NODE": 38.5682, "ARG_OF_PERICENTER": 206.0525, "MEAN_ANOMALY": 286.7976, "EPHEMERIS_TYPE": 0, "CLASSIFICATION_TYPE": "U", "NORAD_CAT_ID": 30527, "ELEMENT_SET_NO": 999, "REV_AT_EPOCH": 91471, "BSTAR": 0.001223003, "MEAN_MOTION_DOT": 8.89e-06, "MEAN_MOTION_DDOT": 0}, "tle": {"line1": "1 30527U 99025AJR 25355.36489604  .00000889  00000+0  12230-2 0  9996", "line2": "2 30527 100.0631  38.5682 0413629 206.0525 286.7976 13.31051449914715"}}, "geometry": {"type": "Point", "coordinates": [46.12035184947745, -30.342517827164627]}}, {"type": "Feature", "properties": {"norad_id": 30528, "name": "FENGYUN 1C DEB", "group": "fengyun-1c-debris", "lat": 65.02559540618664, "lon": 63.9022681988847, "alt_km": 826.1300408860097, "timestamp": "2025-12-22T23:36:20.990416+00:00", "meta": {"OBJECT_NAME": "FENGYUN 1C DEB", "OBJECT_ID": "1999-025AJS", "EPOCH": "2025-12-22T04:59:13.082784", "MEAN_MOTION": 14.13506383, "ECCENTRICITY": 0.01438411, "INCLINATION": 98.2373, "RA_OF_ASC_NODE": 225.0671, "ARG_OF_PERICENTER": 198.4295, "MEAN_ANOMALY": 291.3756, "EPHEMERIS_TYPE": 0, "CLASSIFICATION_TYPE": "U", "NORAD_CAT_ID": 30528, "ELEMENT_SET_NO": 999, "REV_AT_EPOCH": 97271, "BSTAR": 0.00029281017, "MEAN_MOTION_DOT": 5.69e-06, "MEAN_MOTION_DDOT": 0}, "tle": {"line1": "1 30528U 99025AJS 25356.20779031  .00000569  00000+0  29281-3 0  9997", "line2": "2 30528  98.2373 225.0671 0143841 198.4295 291.3756 14.13506383972717"}}, "geometry": {"type": "Point", "coordinates": [63.9022681988847, 65.02559540618664]}}, {"type": "Feature", "properties": {"norad_id": 30529, "name": "FENGYUN 1C DEB", "group": "fengyun-1c-debris", "lat": -57.82513454139638, "lon": 83.9567958376918, "alt_km": 876.4703925592785, "timestamp": "2025-12-22T23:36:20.990427+00:00", "meta": {"OBJECT_NAME": "FENGYUN 1C DEB", "OBJECT_ID": "1999-025AJT", "EPOCH": "2025-12-13T17:51:26.012448", "MEAN_MOTION": 13.71609854, "ECCENTRICITY": 0.02304788, "INCLINATION": 98.487, "RA_OF_ASC_NODE": 269.5039, "ARG_OF_PERICENTER": 219.6089, "MEAN_ANOMALY": 138.8027, "EPHEMERIS_TYPE": 0, "CLASSIFICATION_TYPE": "U", "NORAD_CAT_ID": 30529, "ELEMENT_SET_NO": 999, "REV_AT_EPOCH": 94022, "BSTAR": 0.00122315, "MEAN_MOTION_DOT": 1.295e-05, "MEAN_MOTION_DDOT": 0}, "tle": {"line1": "1 30529U 99025AJT 25347.74405107  .00001295  00000+0  12232-2 0  9991", "line2": "2 30529  98.4870 269.5039 0230478 219.6089 138.8027 13.71609854940220"}}, "geometry": {"type": "Point", "coordinates": [83.9567958376918, -57.82513454139638]}}]}